      2.10          N: GNSS NAV DATA                        RINEX VERSION / TYPE
fic2rin                                 11/14/2024 00:59:02 PGM / RUN BY / DATE
                                                            END OF HEADER
17 24 11 13 15 59 44.0  .560095068067D-03 -.144382283906D-10  .000000000000D+00
     .380000000000D+02  .318750000000D+01  .472162524607D-08 -.305423367979D+01
     .309199094772D-06  .135263394332D-01  .813975930214D-06  .515357122993D+04
     .316784000000D+06  .875443220139D-07 -.197322906121D+01  .856816768646D-07
     .966182030594D+00  .368343750000D+03 -.127348852568D+01 -.836141971526D-08
    -.782175437889D-10  .100000000000D+01  .234000000000D+04  .000000000000D+00
     .240000000000D+01  .000000000000D+00 -.111758708954D-07  .380000000000D+02
     .309600000000D+06  .400000000000D+01
2  24 11 13 16  0  0.0 -.315415672958D-03  .852651282912D-11  .000000000000D+00
     .370000000000D+02 -.116656250000D+03  .417124517768D-08 -.285227825295D+01
    -.594742596149D-05  .163800134324D-01  .784359872341D-05  .515368607521D+04
     .316800000000D+06  .838190317154D-07 -.107040579904D+01  .232830643654D-06
     .966618179139D+00  .224406250000D+03 -.110209159522D+01 -.781103964687D-08
    -.297869550320D-09  .100000000000D+01  .234000000000D+04  .000000000000D+00
     .240000000000D+01  .000000000000D+00 -.176951289177D-07  .370000000000D+02
     .309600000000D+06  .400000000000D+01
5  24 11 13 16  0  0.0 -.192880630493D-03 -.113686837722D-11  .000000000000D+00
     .500000000000D+02  .640625000000D+01  .401266714369D-08 -.267617846073D+01
     .126659870148D-06  .571023940574D-02  .124666839838D-04  .515370368385D+04
     .316800000000D+06  .139698386192D-06  .135557982991D-01  .186264514923D-07
     .974148478269D+00  .141156250000D+03  .133643303082D+01 -.766603360678D-08
     .683242745517D-09  .100000000000D+01  .234000000000D+04  .000000000000D+00
     .240000000000D+01  .000000000000D+00 -.107102096081D-07  .500000000000D+02
     .309600000000D+06  .400000000000D+01
6  24 11 13 16  0  0.0 -.111734028906D-03 -.291038304567D-10  .000000000000D+00
     .960000000000D+02 -.133187500000D+03  .360122143390D-08  .138982844352D+01
    -.681914389133D-05  .326172425412D-02  .992231070995D-05  .515373519325D+04
     .316800000000D+06  .117346644402D-06 -.968277556875D+00  .204890966415D-07
     .989374516471D+00  .200500000000D+03 -.770901429356D+00 -.774782272792D-08
    -.328227957726D-09  .100000000000D+01  .234000000000D+04  .000000000000D+00
     .240000000000D+01  .000000000000D+00  .372529029846D-08  .960000000000D+02
     .309600000000D+06  .400000000000D+01
4  24 11 13 16  0  0.0  .478823669255D-03  .648014975013D-11  .000000000000D+00
     .105000000000D+03 -.540625000000D+01  .507342561426D-08  .297899140837D+01
    -.156462192535D-06  .314900756348D-02  .465475022793D-05  .515368038940D+04
     .316800000000D+06 -.670552253723D-07  .114371794316D+01 -.502914190292D-07
     .965780063130D+00  .295187500000D+03 -.300093766944D+01 -.831141763248D-08
     .111076055335D-09  .100000000000D+01  .234000000000D+04  .000000000000D+00
     .240000000000D+01  .000000000000D+00 -.465661287308D-08  .105000000000D+03
     .309600000000D+06  .400000000000D+01
3  24 11 13 16  0  0.0  .598778948188D-03  .104591890704D-10  .000000000000D+00
     .720000000000D+02  .201562500000D+02  .386444668400D-08 -.743743528475D-01
     .895932316780D-06  .566889601760D-02  .119265168905D-04  .515362925911D+04
     .316800000000D+06 -.335276126862D-07  .670801014012D-01  .171363353729D-06
     .987255950693D+00  .170187500000D+03  .115979118210D+01 -.772925052574D-08
     .688957269264D-09  .100000000000D+01  .234000000000D+04  .000000000000D+00
     .240000000000D+01  .000000000000D+00  .139698386192D-08  .720000000000D+02
     .309600000000D+06  .400000000000D+01
10 24 11 13 16  0  0.0 -.194402411580D-03 -.144382283906D-10  .000000000000D+00
     .300000000000D+02  .125625000000D+02  .378122893193D-08 -.102826712256D+01
     .840052962303D-06  .993621419184D-02  .111088156700D-04  .515368675041D+04
     .316800000000D+06  .175088644028D-06  .645489503000D-01  .104308128357D-06
     .986889431198D+00  .177000000000D+03 -.236272862550D+01 -.765960476757D-08
     .626454665780D-09  .100000000000D+01  .234000000000D+04  .000000000000D+00
     .240000000000D+01  .000000000000D+00  .232830643654D-08  .300000000000D+02
     .309600000000D+06  .400000000000D+01
7  24 11 13 16  0  0.0 -.203968957067D-04  .227373675443D-11  .000000000000D+00
     .390000000000D+02 -.289375000000D+02  .499556522820D-08  .507916503961D+00
    -.130571424961D-05  .188369733514D-01  .110380351543D-04  .515359385490D+04
     .316800000000D+06 -.147148966789D-06  .215597362192D+01  .121071934700D-06
     .950197371352D+00  .166000000000D+03 -.209457513884D+01 -.851321175230D-08
    -.782175437889D-09  .100000000000D+01  .234000000000D+04  .000000000000D+00
     .240000000000D+01  .000000000000D+00 -.107102096081D-07  .390000000000D+02
     .309600000000D+06  .400000000000D+01
28 24 11 13 16  0  0.0 -.477742869407D-03 -.118234311230D-10  .000000000000D+00
     .310000000000D+02 -.410937500000D+02  .459769151231D-08 -.697713703491D+00
    -.208429992199D-05  .476274057291D-03  .104065984488D-04  .515375755882D+04
     .316800000000D+06 -.521540641785D-07  .212483300117D+01 -.186264514923D-07
     .961235389621D+00  .176375000000D+03  .142172291473D+01 -.803176312660D-08
    -.638598028743D-09  .100000000000D+01  .234000000000D+04  .000000000000D+00
     .240000000000D+01  .000000000000D+00 -.931322574615D-08  .310000000000D+02
     .309600000000D+06  .400000000000D+01
22 24 11 13 16  0  0.0 -.791037455201D-04 -.295585778076D-11  .000000000000D+00
     .460000000000D+02  .151375000000D+03  .431767984870D-08 -.251699673531D+01
     .772438943386D-05  .138020442100D-01  .100545585155D-04  .515369123459D+04
     .316800000000D+06  .156462192535D-06 -.299057465182D+01  .178813934326D-06
     .960571034634D+00  .185656250000D+03 -.109141673320D+01 -.786211320286D-08
     .216437586923D-09  .100000000000D+01  .234000000000D+04  .000000000000D+00
     .240000000000D+01  .000000000000D+00 -.111758708954D-07  .460000000000D+02
     .309600000000D+06  .400000000000D+01
27 24 11 13 16  0  0.0 -.347201712430D-04  .113686837722D-12  .000000000000D+00
     .890000000000D+02  .181875000000D+02  .477519890620D-08 -.292679702946D+01
     .944361090660D-06  .128211417468D-01  .102445483208D-05  .515368347549D+04
     .316800000000D+06  .521540641785D-07 -.204270873008D+01 -.180676579475D-06
     .959482060359D+00  .358781250000D+03  .800539823411D+00 -.841177895579D-08
     .375015620906D-10  .100000000000D+01  .234000000000D+04  .000000000000D+00
     .240000000000D+01  .000000000000D+00  .186264514923D-08  .890000000000D+02
     .309600000000D+06  .400000000000D+01
31 24 11 13 16  0  0.0 -.221826136112D-03  .682121026330D-12  .000000000000D+00
     .520000000000D+02 -.265625000000D+02  .473769734411D-08 -.558851446452D+00
    -.130571424961D-05  .107172395801D-01  .104475766420D-04  .515359398842D+04
     .316800000000D+06  .167638063431D-07  .217820673343D+01  .203028321266D-06
     .954147680264D+00  .175500000000D+03  .770294556809D+00 -.821927093705D-08
    -.605025201728D-09  .100000000000D+01  .234000000000D+04  .000000000000D+00
     .240000000000D+01  .000000000000D+00 -.130385160446D-07  .520000000000D+02
     .309600000000D+06  .400000000000D+01
29 24 11 13 16  0  0.0 -.564068555832D-03  .284217094304D-11  .000000000000D+00
     .390000000000D+02  .840625000000D+01  .473126850490D-08 -.309272924114D+01
     .352039933205D-06  .287800736260D-02  .114366412163D-05  .515374178505D+04
     .316800000000D+06  .447034835815D-07 -.195777239104D+01  .633299350739D-07
     .968661771828D+00  .363250000000D+03  .267612355741D+01 -.849606818106D-08
    -.910752222200D-10  .100000000000D+01  .234000000000D+04  .000000000000D+00
     .240000000000D+01  .000000000000D+00 -.977888703346D-08  .390000000000D+02
     .309600000000D+06  .400000000000D+01
24 24 11 13 16  0  0.0 -.480459537357D-03  .216004991671D-11  .000000000000D+00
     .560000000000D+02 -.636250000000D+02  .536450916763D-08  .139593744605D+01
    -.326707959175D-05  .162848234177D-01  .104792416096D-04  .515369691849D+04
     .316800000000D+06 -.359490513802D-06  .205593949432D+01 -.502914190292D-07
     .933866761242D+00  .168937500000D+03  .103022848463D+01 -.859321508476D-08
    -.746816822204D-09  .100000000000D+01  .234000000000D+04  .000000000000D+00
     .240000000000D+01  .000000000000D+00  .232830643654D-08  .560000000000D+02
     .309600000000D+06  .400000000000D+01
16 24 11 13 16  0  0.0 -.129378400743D-03  .977706804406D-11  .000000000000D+00
     .510000000000D+02  .128093750000D+03  .433518057767D-08 -.200478572415D+01
     .655837357044D-05  .142040129285D-01  .889226794243D-05  .515365367126D+04
     .316800000000D+06  .126659870148D-06 -.299386989820D+01 -.968575477600D-07
     .961220854067D+00  .208625000000D+03  .853615497815D+00 -.786247036059D-08
     .301441127661D-09  .100000000000D+01  .234000000000D+04  .000000000000D+00
     .240000000000D+01  .000000000000D+00 -.102445483208D-07  .510000000000D+02
     .309600000000D+06  .400000000000D+01
9  24 11 13 16  0  0.0  .441984739155D-03  .170530256582D-10  .000000000000D+00
     .530000000000D+02  .209375000000D+01  .525771900510D-08 -.246207439016D+01
     .260770320892D-06  .318745628465D-02  .447034835815D-05  .515355377388D+04
     .316800000000D+06 -.353902578354D-07  .108287006296D+01  .391155481339D-07
     .959558468570D+00  .293750000000D+03  .201478893415D+01 -.842963684250D-08
     .200008331150D-09  .100000000000D+01  .234000000000D+04  .000000000000D+00
     .240000000000D+01  .000000000000D+00  .465661287308D-09  .530000000000D+02
     .309600000000D+06  .400000000000D+01
